[{"OBJECT_NAME":"STARLINK-5125","OBJECT_ID":"2022-125AG","EPOCH":"2026-03-21T22:33:43.847712","MEAN_MOTION":15.08851506,"ECCENTRICITY":0.00011596,"INCLINATION":53.2177,"RA_OF_ASC_NODE":159.0035,"ARG_OF_PERICENTER":84.6034,"MEAN_ANOMALY":275.509,"EPHEMERIS_TYPE":0,"CLASSIFICATION_TYPE":"U","NORAD_CAT_ID":53994,"ELEMENT_SET_NO":999,"REV_AT_EPOCH":19131,"BSTAR":0.00010087311,"MEAN_MOTION_DOT":1.318e-5,"MEAN_MOTION_DDOT":0},{"OBJECT_NAME":"STARLINK-5097","OBJECT_ID":"2022-125AH","EPOCH":"2026-03-21T22:44:20.924160","MEAN_MOTION":15.08848669,"ECCENTRICITY":9.207e-5,"INCLINATION":53.2176,"RA_OF_ASC_NODE":159.055,"ARG_OF_PERICENTER":88.2542,"MEAN_ANOMALY":271.8556,"EPHEMERIS_TYPE":0,"CLASSIFICATION_TYPE":"U","NORAD_CAT_ID":53995,"ELEMENT_SET_NO":999,"REV_AT_EPOCH":19130,"BSTAR":6.4686524e-5,"MEAN_MOTION_DOT":7.42e-6,"MEAN_MOTION_DDOT":0},{"OBJECT_NAME":"STARLINK-5131","OBJECT_ID":"2022-125AJ","EPOCH":"2026-03-21T14:31:31.352736","MEAN_MOTION":15.08846794,"ECCENTRICITY":0.00010364,"INCLINATION":53.2173,"RA_OF_ASC_NODE":160.4699,"ARG_OF_PERICENTER":98.9066,"MEAN_ANOMALY":261.2044,"EPHEMERIS_TYPE":0,"CLASSIFICATION_TYPE":"U","NORAD_CAT_ID":53996,"ELEMENT_SET_NO":999,"REV_AT_EPOCH":19126,"BSTAR":0.0001367271,"MEAN_MOTION_DOT":1.889e-5,"MEAN_MOTION_DDOT":0},{"OBJECT_NAME":"STARLINK-5130","OBJECT_ID":"2022-125AK","EPOCH":"2026-03-21T21:42:07.893792","MEAN_MOTION":15.08849868,"ECCENTRICITY":0.00011192,"INCLINATION":53.216,"RA_OF_ASC_NODE":149.514,"ARG_OF_PERICENTER":78.7519,"MEAN_ANOMALY":281.3599,"EPHEMERIS_TYPE":0,"CLASSIFICATION_TYPE":"U","NORAD_CAT_ID":53997,"ELEMENT_SET_NO":999,"REV_AT_EPOCH":19144,"BSTAR":0.00013222045,"MEAN_MOTION_DOT":1.818e-5,"MEAN_MOTION_DDOT":0},{"OBJECT_NAME":"STARLINK-5128","OBJECT_ID":"2022-125AL","EPOCH":"2026-03-21T22:17:50.651808","MEAN_MOTION":15.08837535,"ECCENTRICITY":0.00011889,"INCLINATION":53.2176,"RA_OF_ASC_NODE":158.9381,"ARG_OF_PERICENTER":81.2755,"MEAN_ANOMALY":278.8372,"EPHEMERIS_TYPE":0,"CLASSIFICATION_TYPE":"U","NORAD_CAT_ID":53998,"ELEMENT_SET_NO":999,"REV_AT_EPOCH":19131,"BSTAR":1.7280464e-5,"MEAN_MOTION_DOT":-1.3e-7,"MEAN_MOTION_DDOT":0},{"OBJECT_NAME":"STARLINK-5079","OBJECT_ID":"2022-125AM","EPOCH":"2026-03-21T22:39:03.215808","MEAN_MOTION":15.0883778,"ECCENTRICITY":0.00010844,"INCLINATION":53.2176,"RA_OF_ASC_NODE":159.027,"ARG_OF_PERICENTER":67.7712,"MEAN_ANOMALY":292.3395,"EPHEMERIS_TYPE":0,"CLASSIFICATION_TYPE":"U","NORAD_CAT_ID":53999,"ELEMENT_SET_NO":999,"REV_AT_EPOCH":19131,"BSTAR":-1.813024e-6,"MEAN_MOTION_DOT":-3.17e-6,"MEAN_MOTION_DDOT":0},{"OBJECT_NAME":"STARLINK-5088","OBJECT_ID":"2022-125AN","EPOCH":"2026-03-21T21:36:50.801472","MEAN_MOTION":15.08841002,"ECCENTRICITY":0.00013782,"INCLINATION":53.2168,"RA_OF_ASC_NODE":149.4941,"ARG_OF_PERICENTER":84.387,"MEAN_ANOMALY":275.7279,"EPHEMERIS_TYPE":0,"CLASSIFICATION_TYPE":"U","NORAD_CAT_ID":54000,"ELEMENT_SET_NO":999,"REV_AT_EPOCH":19144,"BSTAR":-7.9435037e-5,"MEAN_MOTION_DOT":-1.552e-5,"MEAN_MOTION_DDOT":0},{"OBJECT_NAME":"STARLINK-5109","OBJECT_ID":"2022-125AQ","EPOCH":"2026-03-21T22:08:32.676288","MEAN_MOTION":15.08849926,"ECCENTRICITY":0.00012394,"INCLINATION":53.2172,"RA_OF_ASC_NODE":148.9408,"ARG_OF_PERICENTER":89.8557,"MEAN_ANOMALY":270.2577,"EPHEMERIS_TYPE":0,"CLASSIFICATION_TYPE":"U","NORAD_CAT_ID":54002,"ELEMENT_SET_NO":999,"REV_AT_EPOCH":19145,"BSTAR":5.3022526e-5,"MEAN_MOTION_DOT":5.56e-6,"MEAN_MOTION_DDOT":0},{"OBJECT_NAME":"STARLINK-5114","OBJECT_ID":"2022-125AR","EPOCH":"2026-03-21T14:26:11.637312","MEAN_MOTION":15.08848897,"ECCENTRICITY":0.00012613,"INCLINATION":53.2168,"RA_OF_ASC_NODE":160.4467,"ARG_OF_PERICENTER":79.1917,"MEAN_ANOMALY":280.9217,"EPHEMERIS_TYPE":0,"CLASSIFICATION_TYPE":"U","NORAD_CAT_ID":54003,"ELEMENT_SET_NO":999,"REV_AT_EPOCH":19126,"BSTAR":0.00012210679,"MEAN_MOTION_DOT":1.656e-5,"MEAN_MOTION_DDOT":0},{"OBJECT_NAME":"STARLINK-5129","OBJECT_ID":"2022-125AS","EPOCH":"2026-03-21T15:45:39.806208","MEAN_MOTION":15.08848345,"ECCENTRICITY":0.00011596,"INCLINATION":53.2167,"RA_OF_ASC_NODE":160.0818,"ARG_OF_PERICENTER":86.4012,"MEAN_ANOMALY":273.7113,"EPHEMERIS_TYPE":0,"CLASSIFICATION_TYPE":"U","NORAD_CAT_ID":54004,"ELEMENT_SET_NO":999,"REV_AT_EPOCH":19127,"BSTAR":7.7191945e-5,"MEAN_MOTION_DOT":9.41e-6,"MEAN_MOTION_DDOT":0},{"OBJECT_NAME":"STARLINK-5135","OBJECT_ID":"2022-125AT","EPOCH":"2026-03-21T22:12:31.718304","MEAN_MOTION":15.08836575,"ECCENTRICITY":0.00014397,"INCLINATION":53.2175,"RA_OF_ASC_NODE":158.9118,"ARG_OF_PERICENTER":74.0484,"MEAN_ANOMALY":286.0666,"EPHEMERIS_TYPE":0,"CLASSIFICATION_TYPE":"U","NORAD_CAT_ID":54005,"ELEMENT_SET_NO":999,"REV_AT_EPOCH":19131,"BSTAR":1.4017019e-5,"MEAN_MOTION_DOT":-6.5e-7,"MEAN_MOTION_DDOT":0},{"OBJECT_NAME":"STARLINK-5096","OBJECT_ID":"2022-125AU","EPOCH":"2026-03-21T12:18:58.638816","MEAN_MOTION":15.08840635,"ECCENTRICITY":0.00011036,"INCLINATION":53.2179,"RA_OF_ASC_NODE":160.6173,"ARG_OF_PERICENTER":91.5391,"MEAN_ANOMALY":268.5727,"EPHEMERIS_TYPE":0,"CLASSIFICATION_TYPE":"U","NORAD_CAT_ID":54006,"ELEMENT_SET_NO":999,"REV_AT_EPOCH":19124,"BSTAR":6.1743165e-5,"MEAN_MOTION_DOT":6.95e-6,"MEAN_MOTION_DDOT":0},{"OBJECT_NAME":"STARLINK-5132","OBJECT_ID":"2022-125AV","EPOCH":"2026-03-21T22:01:55.295904","MEAN_MOTION":15.08829746,"ECCENTRICITY":0.00016825,"INCLINATION":53.2148,"RA_OF_ASC_NODE":158.8684,"ARG_OF_PERICENTER":69.4722,"MEAN_ANOMALY":290.6451,"EPHEMERIS_TYPE":0,"CLASSIFICATION_TYPE":"U","NORAD_CAT_ID":54007,"ELEMENT_SET_NO":999,"REV_AT_EPOCH":19131,"BSTAR":2.1607049e-5,"MEAN_MOTION_DOT":5.6e-7,"MEAN_MOTION_DDOT":0},{"OBJECT_NAME":"STARLINK-5145","OBJECT_ID":"2022-125AW","EPOCH":"2026-03-21T14:00:59.546592","MEAN_MOTION":15.08863714,"ECCENTRICITY":0.00012994,"INCLINATION":53.2172,"RA_OF_ASC_NODE":150.3676,"ARG_OF_PERICENTER":88.9774,"MEAN_ANOMALY":271.1367,"EPHEMERIS_TYPE":0,"CLASSIFICATION_TYPE":"U","NORAD_CAT_ID":54008,"ELEMENT_SET_NO":999,"REV_AT_EPOCH":19140,"BSTAR":0.00023071833,"MEAN_MOTION_DOT":3.388e-5,"MEAN_MOTION_DDOT":0},{"OBJECT_NAME":"STARLINK-5099","OBJECT_ID":"2022-125AX","EPOCH":"2026-03-21T21:56:35.406816","MEAN_MOTION":15.088486,"ECCENTRICITY":8.348e-5,"INCLINATION":53.2174,"RA_OF_ASC_NODE":158.8482,"ARG_OF_PERICENTER":88.0574,"MEAN_ANOMALY":272.0513,"EPHEMERIS_TYPE":0,"CLASSIFICATION_TYPE":"U","NORAD_CAT_ID":54009,"ELEMENT_SET_NO":999,"REV_AT_EPOCH":19131,"BSTAR":0.00012992329,"MEAN_MOTION_DOT":1.781e-5,"MEAN_MOTION_DDOT":0},{"OBJECT_NAME":"STARLINK-5127","OBJECT_ID":"2022-125AY","EPOCH":"2026-03-21T21:47:19.663008","MEAN_MOTION":15.08838575,"ECCENTRICITY":0.00012076,"INCLINATION":53.2165,"RA_OF_ASC_NODE":148.8448,"ARG_OF_PERICENTER":84.2408,"MEAN_ANOMALY":275.8721,"EPHEMERIS_TYPE":0,"CLASSIFICATION_TYPE":"U","NORAD_CAT_ID":54010,"ELEMENT_SET_NO":999,"REV_AT_EPOCH":19145,"BSTAR":1.7448973e-5,"MEAN_MOTION_DOT":-1.0e-7,"MEAN_MOTION_DDOT":0}]
