STARLINK-5125           
1 53994U 22125AG  26080.94009083  .00001318  00000+0  10087-3 0  9992
2 53994  53.2177 159.0035 0001159  84.6034 275.5090 15.08851506191313
STARLINK-5097           
1 53995U 22125AH  26080.94746440  .00000742  00000+0  64687-4 0  9994
2 53995  53.2176 159.0550 0000920  88.2542 271.8556 15.08848669191305
STARLINK-5131           
1 53996U 22125AJ  26080.60522399  .00001889  00000+0  13673-3 0  9994
2 53996  53.2173 160.4699 0001036  98.9066 261.2044 15.08846794191268
STARLINK-5130           
1 53997U 22125AK  26080.90425803  .00001818  00000+0  13222-3 0  9992
2 53997  53.2160 149.5140 0001119  78.7519 281.3599 15.08849868191448
STARLINK-5128           
1 53998U 22125AL  26080.92905847 -.00000013  00000+0  17280-4 0  9992
2 53998  53.2176 158.9381 0001188  81.2755 278.8372 15.08837535191318
STARLINK-5079           
1 53999U 22125AM  26080.94378722 -.00000317  00000+0 -18130-5 0  9995
2 53999  53.2176 159.0270 0001084  67.7712 292.3395 15.08837780191313
STARLINK-5088           
1 54000U 22125AN  26080.90058798 -.00001552  00000+0 -79435-4 0  9999
2 54000  53.2168 149.4941 0001378  84.3870 275.7279 15.08841002191444
STARLINK-5109           
1 54002U 22125AQ  26080.92260042  .00000556  00000+0  53023-4 0  9996
2 54002  53.2172 148.9408 0001239  89.8557 270.2577 15.08849926191456
STARLINK-5114           
1 54003U 22125AR  26080.60152358  .00001656  00000+0  12211-3 0  9997
2 54003  53.2168 160.4467 0001261  79.1917 280.9217 15.08848897191267
STARLINK-5129           
1 54004U 22125AS  26080.65671072  .00000941  00000+0  77192-4 0  9998
2 54004  53.2167 160.0818 0001159  86.4012 273.7113 15.08848345191270
STARLINK-5135           
1 54005U 22125AT  26080.92536711 -.00000065  00000+0  14017-4 0  9994
2 54005  53.2175 158.9118 0001439  74.0484 286.0666 15.08836575191313
STARLINK-5096           
1 54006U 22125AU  26080.51317869  .00000695  00000+0  61743-4 0  9997
2 54006  53.2179 160.6173 0001103  91.5391 268.5727 15.08840635191245
STARLINK-5132           
1 54007U 22125AV  26080.91800111  .00000056  00000+0  21607-4 0  9995
2 54007  53.2148 158.8684 0001682  69.4722 290.6451 15.08829746191310
STARLINK-5145           
1 54008U 22125AW  26080.58402253  .00003388  00000+0  23072-3 0  9992
2 54008  53.2172 150.3676 0001299  88.9774 271.1367 15.08863714191406
STARLINK-5099           
1 54009U 22125AX  26080.91429869  .00001781  00000+0  12992-3 0  9996
2 54009  53.2174 158.8482 0000834  88.0574 272.0513 15.08848600191310
STARLINK-5127           
1 54010U 22125AY  26080.90786647 -.00000010  00000+0  17449-4 0  9995
2 54010  53.2165 148.8448 0001207  84.2408 275.8721 15.08838575191459
